{
  "type": "FeatureCollection",
  "features": [
    {
      "type": "Feature",
      "properties": {
        "norad_id": 66482,
        "name": "STARLINK-35648",
        "group": "last-30-days",
        "lat": 25.817013438351857,
        "lon": 92.10455908921955,
        "alt_km": 410.4943611678282,
        "timestamp": "2025-12-14T11:29:48.796947+00:00",
        "meta_object_name": "STARLINK-35648",
        "meta_object_id": "2025-262AC",
        "meta_epoch": "2025-12-13T12:08:21.584832",
        "meta_mean_motion": 15.5061096,
        "meta_eccentricity": 0.00010005,
        "meta_inclination": 42.9977,
        "meta_ra_of_asc_node": 66.5208,
        "meta_arg_of_pericenter": 274.396,
        "meta_mean_anomaly": 85.6786,
        "meta_ephemeris_type": 0,
        "meta_classification_type": "U",
        "meta_norad_cat_id": 66482,
        "meta_element_set_no": 999,
        "meta_rev_at_epoch": 552,
        "meta_bstar": 0.001979437,
        "meta_mean_motion_dot": 0.00117677,
        "meta_mean_motion_ddot": 0,
        "tle_line1": "1 66482U 25262AC  25347.50580538  .00117677  00000+0  19794-2 0  9998",
        "tle_line2": "2 66482  42.9977  66.5208 0001000 274.3960  85.6786 15.50610960  5520"
      },
      "geometry": {
        "type": "Point",
        "coordinates": [
          92.10455908921955,
          25.817013438351857
        ]
      }
    },
    {
      "type": "Feature",
      "properties": {
        "norad_id": 66483,
        "name": "STARLINK-35654",
        "group": "last-30-days",
        "lat": 27.001016872177715,
        "lon": 93.96852004825271,
        "alt_km": 410.61120456522895,
        "timestamp": "2025-12-14T11:29:48.796957+00:00",
        "meta_object_name": "STARLINK-35654",
        "meta_object_id": "2025-262AD",
        "meta_epoch": "2025-12-13T12:07:51.900384",
        "meta_mean_motion": 15.50617078,
        "meta_eccentricity": 0.00019612,
        "meta_inclination": 43.0015,
        "meta_ra_of_asc_node": 66.5192,
        "meta_arg_of_pericenter": 265.8705,
        "meta_mean_anomaly": 94.1931,
        "meta_ephemeris_type": 0,
        "meta_classification_type": "U",
        "meta_norad_cat_id": 66483,
        "meta_element_set_no": 999,
        "meta_rev_at_epoch": 568,
        "meta_bstar": 0.00252451,
        "meta_mean_motion_dot": 0.00150854,
        "meta_mean_motion_ddot": 0,
        "tle_line1": "1 66483U 25262AD  25347.50546181  .00150854  00000+0  25245-2 0  9997",
        "tle_line2": "2 66483  43.0015  66.5192 0001961 265.8705  94.1931 15.50617078  5687"
      },
      "geometry": {
        "type": "Point",
        "coordinates": [
          93.96852004825271,
          27.001016872177715
        ]
      }
    },
    {
      "type": "Feature",
      "properties": {
        "norad_id": 66484,
        "name": "STARLINK-35371",
        "group": "last-30-days",
        "lat": 27.71552934417504,
        "lon": 95.13395579002746,
        "alt_km": 410.96661237356875,
        "timestamp": "2025-12-14T11:29:48.796967+00:00",
        "meta_object_name": "STARLINK-35371",
        "meta_object_id": "2025-262AE",
        "meta_epoch": "2025-12-12T16:01:32.219328",
        "meta_mean_motion": 15.50574998,
        "meta_eccentricity": 0.00014167,
        "meta_inclination": 43.0018,
        "meta_ra_of_asc_node": 71.4158,
        "meta_arg_of_pericenter": 278.2184,
        "meta_mean_anomaly": 81.8515,
        "meta_ephemeris_type": 0,
        "meta_classification_type": "U",
        "meta_norad_cat_id": 66484,
        "meta_element_set_no": 999,
        "meta_rev_at_epoch": 555,
        "meta_bstar": 7.4960958e-05,
        "meta_mean_motion_dot": 4.058e-05,
        "meta_mean_motion_ddot": 0,
        "tle_line1": "1 66484U 25262AE  25346.66773402  .00004058  00000+0  74961-4 0  9997",
        "tle_line2": "2 66484  43.0018  71.4158 0001416 278.2184  81.8515 15.50574998  5552"
      },
      "geometry": {
        "type": "Point",
        "coordinates": [
          95.13395579002746,
          27.71552934417504
        ]
      }
    },
    {
      "type": "Feature",
      "properties": {
        "norad_id": 66485,
        "name": "STARLINK-34774",
        "group": "last-30-days",
        "lat": 35.23405404022997,
        "lon": -113.89387425069219,
        "alt_km": 439.67308784150464,
        "timestamp": "2025-12-14T11:29:48.796994+00:00",
        "meta_object_name": "STARLINK-34774",
        "meta_object_id": "2025-263A",
        "meta_epoch": "2025-12-13T14:00:03.000384",
        "meta_mean_motion": 15.40656282,
        "meta_eccentricity": 0.00018347,
        "meta_inclination": 43,
        "meta_ra_of_asc_node": 120.5537,
        "meta_arg_of_pericenter": 289.0043,
        "meta_mean_anomaly": 259.4762,
        "meta_ephemeris_type": 0,
        "meta_classification_type": "U",
        "meta_norad_cat_id": 66485,
        "meta_element_set_no": 999,
        "meta_rev_at_epoch": 577,
        "meta_bstar": 0.0005469084,
        "meta_mean_motion_dot": 0.00022577,
        "meta_mean_motion_ddot": 0,
        "tle_line1": "1 66485U 25263A   25347.58336806  .00022577  00000+0  54691-3 0  9997",
        "tle_line2": "2 66485  43.0000 120.5537 0001834 289.0043 259.4762 15.40656282  5776"
      },
      "geometry": {
        "type": "Point",
        "coordinates": [
          -113.89387425069219,
          35.23405404022997
        ]
      }
    },
    {
      "type": "Feature",
      "properties": {
        "norad_id": 66486,
        "name": "STARLINK-34844",
        "group": "last-30-days",
        "lat": -41.27563111814323,
        "lon": 44.606828135944944,
        "alt_km": 416.83051398339285,
        "timestamp": "2025-12-14T11:29:48.797005+00:00",
        "meta_object_name": "STARLINK-34844",
        "meta_object_id": "2025-263B",
        "meta_epoch": "2025-12-13T15:43:27.891552",
        "meta_mean_motion": 15.50588303,
        "meta_eccentricity": 0.00015858,
        "meta_inclination": 42.9995,
        "meta_ra_of_asc_node": 119.8145,
        "meta_arg_of_pericenter": 275.4428,
        "meta_mean_anomaly": 84.6251,
        "meta_ephemeris_type": 0,
        "meta_classification_type": "U",
        "meta_norad_cat_id": 66486,
        "meta_element_set_no": 999,
        "meta_rev_at_epoch": 565,
        "meta_bstar": 0.0014518308,
        "meta_mean_motion_dot": 0.00085798,
        "meta_mean_motion_ddot": 0,
        "tle_line1": "1 66486U 25263B   25347.65518393  .00085798  00000+0  14518-2 0  9996",
        "tle_line2": "2 66486  42.9995 119.8145 0001585 275.4428  84.6251 15.50588303  5650"
      },
      "geometry": {
        "type": "Point",
        "coordinates": [
          44.606828135944944,
          -41.27563111814323
        ]
      }
    },
    {
      "type": "Feature",
      "properties": {
        "norad_id": 66487,
        "name": "STARLINK-34733",
        "group": "last-30-days",
        "lat": -19.49742018993213,
        "lon": -42.48947569773296,
        "alt_km": 445.5216122660586,
        "timestamp": "2025-12-14T11:29:48.797016+00:00",
        "meta_object_name": "STARLINK-34733",
        "meta_object_id": "2025-263C",
        "meta_epoch": "2025-12-13T14:00:03.000384",
        "meta_mean_motion": 15.40667905,
        "meta_eccentricity": 0.00013436,
        "meta_inclination": 42.9996,
        "meta_ra_of_asc_node": 120.3415,
        "meta_arg_of_pericenter": 267.6601,
        "meta_mean_anomaly": 7.8728,
        "meta_ephemeris_type": 0,
        "meta_classification_type": "U",
        "meta_norad_cat_id": 66487,
        "meta_element_set_no": 999,
        "meta_rev_at_epoch": 577,
        "meta_bstar": 0.00058741137,
        "meta_mean_motion_dot": 0.00024286,
        "meta_mean_motion_ddot": 0,
        "tle_line1": "1 66487U 25263C   25347.58336806  .00024286  00000+0  58741-3 0  9998",
        "tle_line2": "2 66487  42.9996 120.3415 0001343 267.6601   7.8728 15.40667905  5771"
      },
      "geometry": {
        "type": "Point",
        "coordinates": [
          -42.48947569773296,
          -19.49742018993213
        ]
      }
    },
    {
      "type": "Feature",
      "properties": {
        "norad_id": 66488,
        "name": "STARLINK-35515",
        "group": "last-30-days",
        "lat": -40.24024568622356,
        "lon": 49.725640535346145,
        "alt_km": 416.5236767866418,
        "timestamp": "2025-12-14T11:29:48.797026+00:00",
        "meta_object_name": "STARLINK-35515",
        "meta_object_id": "2025-263D",
        "meta_epoch": "2025-12-13T15:42:28.920096",
        "meta_mean_motion": 15.50634599,
        "meta_eccentricity": 0.0001804,
        "meta_inclination": 42.9989,
        "meta_ra_of_asc_node": 119.8084,
        "meta_arg_of_pericenter": 253.8885,
        "meta_mean_anomaly": 106.1776,
        "meta_ephemeris_type": 0,
        "meta_classification_type": "U",
        "meta_norad_cat_id": 66488,
        "meta_element_set_no": 999,
        "meta_rev_at_epoch": 570,
        "meta_bstar": 0.0019100458,
        "meta_mean_motion_dot": 0.00113577,
        "meta_mean_motion_ddot": 0,
        "tle_line1": "1 66488U 25263D   25347.65450139  .00113577  00000+0  19100-2 0  9990",
        "tle_line2": "2 66488  42.9989 119.8084 0001804 253.8885 106.1776 15.50634599  5705"
      },
      "geometry": {
        "type": "Point",
        "coordinates": [
          49.725640535346145,
          -40.24024568622356
        ]
      }
    }
  ]
}